[{"OBJECT_NAME":"STARLINK-31791","OBJECT_ID":"2024-082G","EPOCH":"2026-03-09T05:24:39.890880","MEAN_MOTION":15.27551311,"ECCENTRICITY":3.667e-5,"INCLINATION":42.9988,"RA_OF_ASC_NODE":142.1953,"ARG_OF_PERICENTER":200.7339,"MEAN_ANOMALY":159.3497,"EPHEMERIS_TYPE":0,"CLASSIFICATION_TYPE":"U","NORAD_CAT_ID":59637,"ELEMENT_SET_NO":999,"REV_AT_EPOCH":10474,"BSTAR":0.00011811975,"MEAN_MOTION_DOT":2.987e-5,"MEAN_MOTION_DDOT":0},{"OBJECT_NAME":"QAEM 100 R\/B","OBJECT_ID":"2024-165A","EPOCH":"2026-03-09T23:28:11.930304","MEAN_MOTION":15.14187295,"ECCENTRICITY":0.0059581,"INCLINATION":64.0756,"RA_OF_ASC_NODE":359.5576,"ARG_OF_PERICENTER":312.0209,"MEAN_ANOMALY":47.5844,"EPHEMERIS_TYPE":0,"CLASSIFICATION_TYPE":"U","NORAD_CAT_ID":61071,"ELEMENT_SET_NO":999,"REV_AT_EPOCH":8183,"BSTAR":0.0003372463,"MEAN_MOTION_DOT":6.252e-5,"MEAN_MOTION_DDOT":0}]
